GLOBALSTAR M068 [-]     
1 32266U 07048D   23310.69033948 -.00000037  00000+0  37078-3 0  9997
2 32266  51.9889 296.1083 0000619 311.5899 220.6480 12.62770420743201
GLOBALSTAR M079 [+]     
1 37188U 10054A   23310.82941855 -.00000085  00000+0  10549-3 0  9993
2 37188  52.0015 130.8416 0001167  93.4317 280.4682 12.62269708602154
GLOBALSTAR M074 [+]     
1 37189U 10054B   23310.77637838 -.00000090  00000+0  79150-4 0  9991
2 37189  51.9990 130.4157 0000969  98.2669 275.0136 12.62271788602756
GLOBALSTAR M076 [+]     
1 37190U 10054C   23310.80282773 -.00000065  00000+0  21844-3 0  9999
2 37190  52.0003 130.4542 0001400 113.6423 259.0488 12.62263544602476
GLOBALSTAR M077 [+]     
1 37191U 10054D   23310.71080507 -.00000187  00000+0 -46658-3 0  9997
2 37191  52.0068  87.4196 0000821 111.5283 261.9946 12.62266865602831
GLOBALSTAR M075 [+]     
1 37192U 10054E   23310.91614060 -.00000084  00000+0  11113-3 0  9990
2 37192  51.9929 172.6971 0001125  79.9063  26.5431 12.62255535601717
GLOBALSTAR M073 [+]     
1 37193U 10054F   23311.16789604 -.00000090  00000+0  74338-4 0  9992
2 37193  52.0052  85.2941 0000867 109.8410  62.9832 12.62269230603622
GLOBALSTAR M083 [+]     
1 37739U 11033A   23310.94339437 -.00000084  00000+0  10991-3 0  9993
2 37739  51.9882  35.5127 0000546  85.2699  88.1459 12.62262633572564
GLOBALSTAR M088 [+]     
1 37740U 11033B   23310.75839091 -.00000073  00000+0  17358-3 0  9997
2 37740  51.9741 302.0662 0000676  51.9345 119.7103 12.62267251568088
GLOBALSTAR M091 [+]     
1 37741U 11033C   23310.29142583 -.00000071  00000+0  18386-3 0  9990
2 37741  52.0000 265.9903 0000925  51.7009  96.1821 12.62268149568819
GLOBALSTAR M085 [+]     
1 37742U 11033D   23311.14911164 -.00000077  00000+0  15215-3 0  9999
2 37742  51.9862 214.9383 0001083  61.8547  85.9077 12.62264909569927
GLOBALSTAR M081 [+]     
1 37743U 11033E   23311.08758818 -.00000084  00000+0  11038-3 0  9995
2 37743  51.9954 217.5495 0001185  69.8623  38.1660 12.62266414569953
GLOBALSTAR M089 [+]     
1 37744U 11033F   23310.86890490 -.00000081  00000+0  12799-3 0  9996
2 37744  51.9912 172.5544 0001003  96.8816 276.9031 12.62269325570394
GLOBALSTAR M084 [+]     
1 38040U 11080A   23310.58579661 -.00000091  00000+0  71522-4 0  9992
2 38040  52.0027  40.3906 0000695 135.7882 329.9225 12.62267286548336
GLOBALSTAR M080 [+]     
1 38041U 11080B   23310.97002263 -.00000092  00000+0  63053-4 0  9996
2 38041  52.0080  40.6207 0000901 135.2292  37.4422 12.62265824548508
GLOBALSTAR M082 [+]     
1 38042U 11080C   23310.90348454 -.00000075  00000+0  15907-3 0  9990
2 38042  52.0100 356.2084 0000539  15.3469 155.9719 12.62267617549207
GLOBALSTAR M092 [+]     
1 38043U 11080D   23310.86956247 -.00000078  00000+0  14112-3 0  9991
2 38043  52.0077  86.6515 0000756 131.3194   6.5399 12.62274033547651
GLOBALSTAR M090 [+]     
1 38044U 11080E   23311.13719895 -.00000067  00000+0  20487-3 0  9999
2 38044  51.9908 350.0622 0000423  54.5307 340.2668 12.62263131549390
GLOBALSTAR M086 [+]     
1 38045U 11080F   23310.44674154 -.00000071  00000+0  18022-3 0  9998
2 38045  51.9920 352.6715 0001318  94.4112 280.2661 12.62263962549216
GLOBALSTAR M097 [+]     
1 39072U 13005A   23310.62840358 -.00000082  00000+0  12058-3 0  9994
2 39072  52.0049 266.0667 0000905  53.2475 306.8474 12.62272393496486
GLOBALSTAR M093 [+]     
1 39073U 13005B   23311.15619552 -.00000076  00000+0  15711-3 0  9996
2 39073  51.9812 258.7042 0001173  54.1965 305.9010 12.62268522496621
GLOBALSTAR M094 [+]     
1 39074U 13005C   23310.99787951 -.00000075  00000+0  15934-3 0  9993
2 39074  51.9939 172.9816 0001173  78.9479 281.1520 12.62269584498118
GLOBALSTAR M096 [+]     
1 39075U 13005D   23310.93189583 -.00000081  00000+0  12869-3 0  9996
2 39075  52.0071 221.2368 0001142  62.6133 297.4850 12.62265863497000
GLOBALSTAR M078 [+]     
1 39076U 13005E   23310.27185018 -.00000077  00000+0  15106-3 0  9995
2 39076  51.9881 308.5558 0000868 339.6438  20.4394 12.62262910495541
GLOBALSTAR M095 [+]     
1 39077U 13005F   23310.45679180 -.00000074  00000+0  16746-3 0  9992
2 39077  51.9808 305.4830 0000901  17.1708 342.9189 12.62270453495428
GLOBALSTAR M087 [+]     
1 52888U 22064A   23310.61139514 -.00000068  00000+0  11527-3 0  9997
2 52888  51.9760 267.9684 0009473 153.5538 206.5847 13.37557164 67609
